OBJECT_NAME,OBJECT_ID,EPOCH,MEAN_MOTION,ECCENTRICITY,INCLINATION,RA_OF_ASC_NODE,ARG_OF_PERICENTER,MEAN_ANOMALY,EPHEMERIS_TYPE,CLASSIFICATION_TYPE,NORAD_CAT_ID,ELEMENT_SET_NO,REV_AT_EPOCH,BSTAR,MEAN_MOTION_DOT,MEAN_MOTION_DDOT
STARLINK-34313,2025-112W,2026-06-18T03:13:43.698720,15.05661997,.00018621,97.3461,219.5414,107.8995,252.2436,0,U,64166,999,5842,.26737579E-3,.3804E-4,0
STARLINK-34309,2025-112X,2026-06-18T03:01:46.202880,15.05662200,.00022691,97.3452,219.5504,87.1289,273.0198,0,U,64167,999,5842,.2620735E-3,.3727E-4,0
STARLINK-34303,2025-112Y,2026-06-18T02:49:48.581760,15.05658320,.00015262,97.3457,219.5626,81.5550,278.5850,0,U,64168,999,5842,.27874111E-3,.3968E-4,0
STARLINK-34175,2025-112Z,2026-06-18T02:25:52.218912,15.05658095,.00012706,97.3475,219.4314,90.4489,269.6884,0,U,64169,999,5841,.23734431E-3,.337E-4,0
STARLINK-34177,2025-113A,2026-06-17T21:00:29.216160,15.31715047,.00008989,53.1611,345.1044,40.3307,319.7761,0,U,64170,999,6041,.52013597E-3,.15817E-3,0
STARLINK-34228,2025-113B,2026-06-17T17:32:24.353952,15.31706126,.0001128,53.1604,345.6192,89.7986,270.3145,0,U,64171,999,6039,.43386419E-3,.13124E-3,0
STARLINK-34233,2025-113C,2026-06-17T21:47:32.199648,15.31719655,.00003963,53.1594,345.3047,76.0742,284.0304,0,U,64172,999,6041,.60690359E-3,.18526E-3,0
STARLINK-34172,2025-113D,2026-06-17T18:59:38.383872,15.31721882,.00009131,53.1596,345.2849,100.0754,260.0350,0,U,64173,999,6036,.43170866E-3,.13064E-3,0
STARLINK-34202,2025-113E,2026-06-17T19:17:14.034624,15.30209806,.0001085,53.1603,346.0665,83.3036,276.8088,0,U,64174,999,6039,.46910122E-3,.13564E-3,0
STARLINK-34231,2025-113F,2026-06-17T18:32:53.611008,15.31720771,.00008621,53.1594,345.8810,77.7363,282.3735,0,U,64175,999,6039,.54950564E-3,.16736E-3,0
STARLINK-34191,2025-113G,2026-06-17T19:10:56.565984,15.34406456,.00011507,53.1604,344.6250,102.3732,257.7400,0,U,64176,999,6041,.36813909E-3,.12085E-3,0
STARLINK-34164,2025-113H,2026-06-17T21:24:43.005888,15.30219579,.00010115,53.1623,345.9143,65.3569,294.7537,0,U,64177,999,6040,.8060919E-3,.23605E-3,0
STARLINK-34227,2025-113J,2026-06-17T19:21:47.274624,15.30210802,.00011461,53.1610,346.0873,105.1582,254.9546,0,U,64178,999,6039,.38360476E-3,.11023E-3,0
STARLINK-34194,2025-113K,2026-06-17T18:31:33.399840,15.34417338,.00008445,53.1592,344.4546,55.8188,304.2895,0,U,64179,999,6041,.78845879E-3,.26371E-3,0
STARLINK-34000,2025-113L,2026-06-17T22:08:37.266720,15.30217422,.00009553,53.1593,345.3875,94.0292,266.0818,0,U,64180,999,6037,.61850317E-3,.18013E-3,0
STARLINK-33917,2025-113M,2026-06-17T21:12:33.267168,15.30209592,.00012815,53.1631,345.8539,91.4656,268.6492,0,U,64181,999,6040,.38822587E-3,.1116E-3,0
STARLINK-34131,2025-113N,2026-06-17T17:44:42.061344,15.30207589,.0001072,53.1606,346.3729,83.4892,276.6231,0,U,64182,999,6034,.40170431E-3,.1156E-3,0
STARLINK-34188,2025-113P,2026-06-17T18:26:10.651776,15.31704412,.00014003,53.1611,345.8484,97.2628,262.8533,0,U,64183,999,6039,.38115996E-3,.11483E-3,0
STARLINK-34197,2025-113Q,2026-06-17T18:12:02.889792,15.30212117,.00007788,53.1614,346.4954,74.9528,285.1559,0,U,64184,999,6038,.62421778E-3,.18181E-3,0
STARLINK-34063,2025-113R,2026-06-17T18:12:44.306496,15.31714633,.00008458,53.1614,345.7877,85.2373,274.8725,0,U,64185,999,6039,.75623183E-3,.23185E-3,0
STARLINK-34200,2025-113S,2026-06-17T19:13:04.964160,15.31718142,.00011931,53.1601,345.3423,122.4455,237.6662,0,U,64186,999,6040,.49650481E-3,.15082E-3,0
STARLINK-33934,2025-113T,2026-06-17T19:32:25.399104,15.30213151,.0001034,53.1633,346.1318,96.2710,263.8409,0,U,64187,999,6035,.47089548E-3,.13619E-3,0
STARLINK-33929,2025-113U,2026-06-17T21:03:26.188416,15.30212304,.00009894,53.1604,345.8106,105.7601,254.3509,0,U,64188,999,6040,.79006024E-3,.23122E-3,0
STARLINK-33872,2025-113V,2026-06-17T21:30:03.833280,15.34407852,.00005397,53.1604,343.8011,56.7133,303.3922,0,U,64189,999,6039,.7921164E-3,.26488E-3,0
STARLINK-34214,2025-113W,2026-06-17T18:13:34.174848,15.30213230,.00011443,53.1625,346.4979,89.5693,270.5439,0,U,64190,999,6038,.69269059E-3,.20221E-3,0
STARLINK-34222,2025-113X,2026-06-17T21:29:16.701216,15.30199357,.00014022,53.1618,345.9222,69.5626,290.5525,0,U,64191,999,6036,.53502688E-3,.1552E-3,0
STARLINK-34265,2025-113Y,2026-06-17T21:11:02.130720,15.30210285,.00012299,53.1630,345.8464,110.1457,249.9677,0,U,64192,999,6036,.48471315E-3,.14028E-3,0
STARLINK-34245,2025-113Z,2026-06-17T18:52:45.880896,15.34409406,.00009218,53.1591,344.5429,80.6422,279.4685,0,U,64193,999,6037,.43136E-3,.1423E-3,0
STARLINK-34237,2025-113AA,2026-06-17T17:59:17.143872,15.31713920,.00014474,53.1618,345.7292,88.4985,271.6182,0,U,64194,999,6035,.29506803E-3,.8806E-4,0
STARLINK-33857,2025-113AB,2026-06-17T18:58:59.342304,15.30187776,.00009925,53.1595,345.9861,93.5487,266.5628,0,U,64195,999,6035,.10530964E-3,.276E-4,0
