STARLINK-34313          
1 64166U 25112W   26169.13453355  .00003804  00000+0  26738-3 0  9990
2 64166  97.3461 219.5414 0001862 107.8995 252.2436 15.05661997 58429
STARLINK-34309          
1 64167U 25112X   26169.12622920  .00003727  00000+0  26207-3 0  9991
2 64167  97.3452 219.5504 0002269  87.1289 273.0198 15.05662200 58422
STARLINK-34303          
1 64168U 25112Y   26169.11792340  .00003968  00000+0  27874-3 0  9993
2 64168  97.3457 219.5626 0001526  81.5550 278.5850 15.05658320 58420
STARLINK-34175          
1 64169U 25112Z   26169.10129883  .00003370  00000+0  23734-3 0  9997
2 64169  97.3475 219.4314 0001270  90.4489 269.6884 15.05658095 58416
STARLINK-34177          
1 64170U 25113A   26168.87533815  .00015817  00000+0  52014-3 0  9999
2 64170  53.1611 345.1044 0000898  40.3307 319.7761 15.31715047 60419
STARLINK-34228          
1 64171U 25113B   26168.73083743  .00013124  00000+0  43386-3 0  9996
2 64171  53.1604 345.6192 0001128  89.7986 270.3145 15.31706126 60391
STARLINK-34233          
1 64172U 25113C   26168.90801157  .00018526  00000+0  60690-3 0  9991
2 64172  53.1594 345.3047 0000396  76.0742 284.0304 15.31719655 60414
STARLINK-34172          
1 64173U 25113D   26168.79141648  .00013064  00000+0  43171-3 0  9998
2 64173  53.1596 345.2849 0000913 100.0754 260.0350 15.31721882 60366
STARLINK-34202          
1 64174U 25113E   26168.80363466  .00013564  00000+0  46910-3 0  9994
2 64174  53.1603 346.0665 0001085  83.3036 276.8088 15.30209806 60390
STARLINK-34231          
1 64175U 25113F   26168.77284272  .00016736  00000+0  54951-3 0  9996
2 64175  53.1594 345.8810 0000862  77.7363 282.3735 15.31720771 60392
STARLINK-34191          
1 64176U 25113G   26168.79926581  .00012085  00000+0  36814-3 0  9996
2 64176  53.1604 344.6250 0001150 102.3732 257.7400 15.34406456 60418
STARLINK-34164          
1 64177U 25113H   26168.89216442  .00023605  00000+0  80609-3 0  9997
2 64177  53.1623 345.9143 0001011  65.3569 294.7537 15.30219579 60402
STARLINK-34227          
1 64178U 25113J   26168.80679716  .00011023  00000+0  38360-3 0  9994
2 64178  53.1610 346.0873 0001146 105.1582 254.9546 15.30210802 60394
STARLINK-34194          
1 64179U 25113K   26168.77191435  .00026371  00000+0  78846-3 0  9993
2 64179  53.1592 344.4546 0000844  55.8188 304.2895 15.34417338 60416
STARLINK-34000          
1 64180U 25113L   26168.92265355  .00018013  00000+0  61850-3 0  9996
2 64180  53.1593 345.3875 0000955  94.0292 266.0818 15.30217422 60371
STARLINK-33917          
1 64181U 25113M   26168.88371837  .00011160  00000+0  38823-3 0  9995
2 64181  53.1631 345.8539 0001281  91.4656 268.6492 15.30209592 60404
STARLINK-34131          
1 64182U 25113N   26168.73937571  .00011560  00000+0  40170-3 0  9995
2 64182  53.1606 346.3729 0001072  83.4892 276.6231 15.30207589 60342
STARLINK-34188          
1 64183U 25113P   26168.76817884  .00011483  00000+0  38116-3 0  9994
2 64183  53.1611 345.8484 0001400  97.2628 262.8533 15.31704412 60391
STARLINK-34197          
1 64184U 25113Q   26168.75836678  .00018181  00000+0  62422-3 0  9995
2 64184  53.1614 346.4954 0000778  74.9528 285.1559 15.30212117 60382
STARLINK-34063          
1 64185U 25113R   26168.75884614  .00023185  00000+0  75623-3 0  9996
2 64185  53.1614 345.7877 0000845  85.2373 274.8725 15.31714633 60399
STARLINK-34200          
1 64186U 25113S   26168.80075190  .00015082  00000+0  49650-3 0  9992
2 64186  53.1601 345.3423 0001193 122.4455 237.6662 15.31718142 60409
STARLINK-33934          
1 64187U 25113T   26168.81418286  .00013619  00000+0  47090-3 0  9991
2 64187  53.1633 346.1318 0001034  96.2710 263.8409 15.30213151 60356
STARLINK-33929          
1 64188U 25113U   26168.87738644  .00023122  00000+0  79006-3 0  9993
2 64188  53.1604 345.8106 0000989 105.7601 254.3509 15.30212304 60400
STARLINK-33872          
1 64189U 25113V   26168.89587770  .00026488  00000+0  79212-3 0  9995
2 64189  53.1604 343.8011 0000539  56.7133 303.3922 15.34407852 60390
STARLINK-34214          
1 64190U 25113W   26168.75942332  .00020221  00000+0  69269-3 0  9991
2 64190  53.1625 346.4979 0001144  89.5693 270.5439 15.30213230 60383
STARLINK-34222          
1 64191U 25113X   26168.89533219  .00015520  00000+0  53503-3 0  9997
2 64191  53.1618 345.9222 0001402  69.5626 290.5525 15.30199357 60361
STARLINK-34265          
1 64192U 25113Y   26168.88266355  .00014028  00000+0  48471-3 0  9991
2 64192  53.1630 345.8464 0001229 110.1457 249.9677 15.30210285 60365
STARLINK-34245          
1 64193U 25113Z   26168.78664214  .00014230  00000+0  43136-3 0  9995
2 64193  53.1591 344.5429 0000921  80.6422 279.4685 15.34409406 60377
STARLINK-34237          
1 64194U 25113AA  26168.74950398  .00008806  00000+0  29507-3 0  9991
2 64194  53.1618 345.7292 0001447  88.4985 271.6182 15.31713920 60353
STARLINK-33857          
1 64195U 25113AB  26168.79096461  .00002760  00000+0  10531-3 0  9999
2 64195  53.1595 345.9861 0000992  93.5487 266.5628 15.30187776 60351
